NUSAT-1 (FRESCO)        
1 41557U 16033B   22216.54339387  .00006080  00000+0  17757-3 0  9993
2 41557  97.3904 314.3595 0010452 196.6736 219.5497 15.35638768344769
BEESAT-4                
1 41619U 16040W   22216.13258743  .00006901  00000+0  22407-3 0  9991
2 41619  97.2130 265.5154 0007503 311.9116  48.1486 15.32224027328024
CAS-2T & KS-1Q          
1 41847U 16066G   22216.12532998  .00000389  00000+0  67210-4 0  9994
2 41847  98.5481 280.7368 0364543  67.3851 296.5467 14.38674576301206
NAYIF-1 (EO-88)         
1 42017U 17008BX  22216.14324154  .00008665  00000+0  24997-3 0  9995
2 42017  97.2654 281.6005 0006358  83.0799 277.1168 15.35916284304394
ZHUHAI-1 02 (CAS-4B)    
1 42759U 17034B   22216.46631193  .00001387  00000+0  91788-4 0  9993
2 42759  43.0178  67.9969 0010102 238.5266 192.2191 15.12178340283622
ZHUHAI-1 01 (CAS-4A)    
1 42761U 17034D   22216.56981363  .00001721  00000+0  11050-3 0  9999
2 42761  43.0178  66.1753 0010226 241.3472 213.6716 15.12267190283640
MAX VALIER SAT          
1 42778U 17036P   22216.54312663  .00003859  00000+0  14523-3 0  9990
2 42778  97.2020 256.0035 0011884 147.3995 212.7981 15.27638775284242
RADFXSAT (FOX-1B)       
1 43017U 17073E   22216.39236652  .00002621  00000+0  19875-3 0  9995
2 43017  97.6688 108.6176 0248637  31.1671 330.4019 14.81697864254217
FOX-1D (AO-92)          
1 43137U 18004AC  22216.36885783  .00004786  00000+0  16660-3 0  9998
2 43137  97.3662 291.1143 0007644 179.7461 180.3785 15.30138673253672
DIWATA-2B               
1 43678U 18084H   22216.46168625  .00000292  00000+0  34375-4 0  9998
2 43678  97.9771 350.3074 0010976 122.8053 237.4249 14.92235858205012
ES'HAIL 2               
1 43700U 18090A   22216.55882729  .00000151  00000+0  00000+0 0  9996
2 43700   0.0165  91.0427 0001666  79.1314   9.8848  1.00271308 13514
FOX-1CLIFF (AO-95)      
1 43770U 18099N   22216.12971232  .00001560  00000+0  14154-3 0  9997
2 43770  97.6182 281.2406 0015768 114.1053 246.1820 14.96624992200143
ITASAT 1                
1 43786U 18099AE  22216.11874868  .00000953  00000+0  88133-4 0  9994
2 43786  97.6203 282.1743 0016226 107.9971 252.3021 14.96742515200185
JY1SAT (JO-97)          
1 43803U 18099AX  22216.12011616  .00001264  00000+0  11371-3 0  9994
2 43803  97.6165 281.9446 0016118 107.2814 253.0173 14.97279430200209
UWE-4                   
1 43880U 18111E   22216.48605466  .00001740  00000+0  15065-3 0  9998
2 43880  97.6639 121.9565 0012914 150.9403 209.2541 14.98364971196891
NEXUS (FO-99)           
1 43937U 19003F   22216.52888324  .00006163  00000+0  20282-3 0  9994
2 43937  97.1277 248.0324 0019178 347.4568  12.6195 15.31678725197339
PSAT2 (NO-104)          
1 44354U 19036R   22216.28413113  .00033225 -58500-5  26481-3 0  9998
2 44354  28.5224 205.5146 0214666 151.9738 209.2607 15.44296442172071
JAISAT-1                
1 44419U 19038F   22216.50237237  .00003597  00000+0  18000-3 0  9990
2 44419  97.6388 187.0404 0017888 330.6868  29.3360 15.17949644170343
DUCHIFAT-3              
1 44854U 19089C   22216.26273403  .00001265  00000+0  10248-3 0  9993
2 44854  36.9659 176.8540 0008986 257.0429 102.9312 15.01326826145121
CAS-6 (TO-108)          
1 44881U 19093C   22216.52405472  .00000212  00000+0  33468-4 0  9991
2 44881  97.8925 295.0431 0015801  34.3674 325.8562 14.81774396141897
RS-44 & BREEZE-KM R/B   
1 44909U 19096E   22216.42924824  .00000022  00000+0  45960-4 0  9990
2 44909  82.5209 198.4018 0216771 207.2999 151.6577 12.79714157121647
ORBITAL FACTORY 2 (OF-2)
1 45113U 19071C   22216.31650159  .00015947  00000+0  31280-3 0  9997
2 45113  51.6369 183.4899 0009732 357.8801   2.2144 15.47466530140785
HUSKYSAT-1 (HO-107)     
1 45119U 19071J   22216.48399090  .00012193  00000+0  25119-3 0  9999
2 45119  51.6368 183.0796 0009449 354.5752   5.5132 15.46293059140793
BY70-2                  
1 45857U 20042B   22216.49384826  .00002736  00000+0  36581-3 0  9997
2 45857  97.9552 292.8903 0009078 328.0116  32.0533 14.80301422112562
SALSAT                  
1 46495U 20068K   22216.44553759  .00001248  00000+0  92956-4 0  9998
2 46495  97.7312 157.7699 0017921 113.1127 247.1989 15.04675874101402
BY70-3                  
1 46839U 20079N   22216.56721007  .00011882  00000+0  26461-3 0  9990
2 46839  97.1950 288.0832 0006495 145.9402 321.5680 15.43742177 97667
RADFXSAT-2 (AO-109)     
1 47311U 21002C   22216.31172333  .00004924  00000+0  19984-3 0  9999
2 47311  60.6843 182.0007 0025419  13.9289 346.2495 15.25894394 85765
UVSQ-SAT                
1 47438U 21006AB  22216.13606768  .00002612  00000+0  13857-3 0  9992
2 47438  97.4338 274.1733 0013452 108.3316 251.9381 15.16147950 84501
DIY-1 (ARDUIQUBE)       
1 47963U 21022AH  22216.52396501  .00007495  00000+0  40709-3 0  9997
2 47963  97.5267 117.3561 0015432 334.4877  25.5591 15.14704955 74225
XW-3 (CAS-9)            
1 50466U 21131B   22216.51390469 -.00000033  00000+0  39061-5 0  9999
2 50466  98.5793 293.7428 0004624  22.7641 337.3750 14.38512654 31828
TEVEL-3                 
1 50988U 22002E   22216.59436457  .00002952  00000+0  16186-3 0  9994
2 50988  97.4790 282.7821 0007933 253.7300 212.4160 15.14929544 30700
TEVEL-8                 
1 50989U 22002F   22216.60693175  .00002780  00000+0  15291-3 0  9994
2 50989  97.4802 282.8176 0007958 253.6965 244.0857 15.14875636 30708
TEVEL-5                 
1 50998U 22002Q   22216.60592887  .00002927  00000+0  15835-3 0  9999
2 50998  97.4781 282.9130 0009552 248.7106 250.2830 15.15414930 30717
TEVEL-6                 
1 50999U 22002R   22216.59942718  .00002916  00000+0  15776-3 0  9992
2 50999  97.4773 282.9039 0009507 249.5228 216.6434 15.15418936 30717
TEVEL-1                 
1 51013U 22002AF  22216.59734175  .00002860  00000+0  15706-3 0  9997
2 51013  97.4785 282.7658 0007886 252.9445 213.1759 15.14903513 30700
TEVEL-7                 
1 51062U 22002CG  22216.60850618  .00002785  00000+0  15320-3 0  9992
2 51062  97.4802 282.8068 0007901 251.5534 246.0811 15.14866425 30706
TEVEL-4                 
1 51063U 22002CH  22216.47497266  .00002730  00000+0  15026-3 0  9997
2 51063  97.4797 282.6718 0007973 252.3536 233.5535 15.14856652 30682
TEVEL-2                 
1 51069U 22002CP  22216.59559581  .00002900  00000+0  15910-3 0  9996
2 51069  97.4789 282.7710 0007902 253.6892 212.4086 15.14921528 30708
